{"type": "FeatureCollection", "features": [ {"type": "Feature", "properties": {"norad_id": 43010, "name": "FENGYUN 3D", "group": "weather", "lat": -59.515285189601634, "lon": -20.131773093227572, "alt_km": 834.3783516690946, "timestamp": "2025-12-23T18:59:31.636948+00:00", "meta": {"OBJECT_NAME": "FENGYUN 3D", "OBJECT_ID": "2017-072A", "EPOCH": "2025-12-23T07:26:15.702144", "MEAN_MOTION": 14.19688251, "ECCENTRICITY": 0.00014327, "INCLINATION": 98.9907, "RA_OF_ASC_NODE": 323.7786, "ARG_OF_PERICENTER": 151.7224, "MEAN_ANOMALY": 208.403, "EPHEMERIS_TYPE": 0, "CLASSIFICATION_TYPE": "U", "NORAD_CAT_ID": 43010, "ELEMENT_SET_NO": 999, "REV_AT_EPOCH": 42003, "BSTAR": 0.00021290799, "MEAN_MOTION_DOT": 4.04e-06, "MEAN_MOTION_DDOT": 0}, "tle": {"line1": "1 43010U 17072A   25357.30990396  .00000404  00000+0  21291-3 0  9991", "line2": "2 43010  98.9907 323.7786 0001432 151.7224 208.4030 14.19688251420031"}}, "geometry": {"type": "Point", "coordinates": [-20.131773093227572, -59.515285189601634]}}, {"type": "Feature", "properties": {"norad_id": 43013, "name": "NOAA 20 (JPSS-1)", "group": "weather", "lat": 79.97308697005914, "lon": -126.74746482351146, "alt_km": 818.0652703880014, "timestamp": "2025-12-23T18:59:31.636957+00:00", "meta": {"OBJECT_NAME": "NOAA 20 (JPSS-1)", "OBJECT_ID": "2017-073A", "EPOCH": "2025-12-23T03:22:04.548288", "MEAN_MOTION": 14.1952836, "ECCENTRICITY": 0.00021062, "INCLINATION": 98.7613, "RA_OF_ASC_NODE": 293.3239, "ARG_OF_PERICENTER": 72.3497, "MEAN_ANOMALY": 287.7909, "EPHEMERIS_TYPE": 0, "CLASSIFICATION_TYPE": "U", "NORAD_CAT_ID": 43013, "ELEMENT_SET_NO": 999, "REV_AT_EPOCH": 41949, "BSTAR": 6.3345782e-05, "MEAN_MOTION_DOT": 8.9e-07, "MEAN_MOTION_DDOT": 0}, "tle": {"line1": "1 43013U 17073A   25357.14033042  .00000089  00000+0  63346-4 0  9990", "line2": "2 43013  98.7613 293.3239 0002106  72.3497 287.7909 14.19528360419497"}}, "geometry": {"type": "Point", "coordinates": [-126.74746482351146, 79.97308697005914]}}, {"type": "Feature", "properties": {"norad_id": 43226, "name": "GOES 17", "group": "weather", "lat": -0.17976864192138337, "lon": -72.04614223745634, "alt_km": 35773.33754503246, "timestamp": "2025-12-23T18:59:31.636968+00:00", "meta": {"OBJECT_NAME": "GOES 17", "OBJECT_ID": "2018-022A", "EPOCH": "2025-12-23T04:08:45.536928", "MEAN_MOTION": 1.00272653, "ECCENTRICITY": 0.00029971, "INCLINATION": 0.4829, "RA_OF_ASC_NODE": 89.0891, "ARG_OF_PERICENTER": 190.5083, "MEAN_ANOMALY": 145.0542, "EPHEMERIS_TYPE": 0, "CLASSIFICATION_TYPE": "U", "NORAD_CAT_ID": 43226, "ELEMENT_SET_NO": 999, "REV_AT_EPOCH": 2865, "BSTAR": 0, "MEAN_MOTION_DOT": -1.62e-06, "MEAN_MOTION_DDOT": 0}, "tle": {"line1": "1 43226U 18022A   25357.17274927 -.00000162  00000+0  00000+0 0  9999", "line2": "2 43226   0.4829  89.0891 0002997 190.5083 145.0542  1.00272653 28658"}}, "geometry": {"type": "Point", "coordinates": [-72.04614223745634, -0.17976864192138337]}}, {"type": "Feature", "properties": {"norad_id": 43491, "name": "FENGYUN 2H", "group": "weather", "lat": 0.7146131889643845, "lon": 96.7680207194995, "alt_km": 35794.99725354217, "timestamp": "2025-12-23T18:59:31.636987+00:00", "meta": {"OBJECT_NAME": "FENGYUN 2H", "OBJECT_ID": "2018-050A", "EPOCH": "2025-12-23T01:31:34.253760", "MEAN_MOTION": 1.00270908, "ECCENTRICITY": 0.0002368, "INCLINATION": 2.5759, "RA_OF_ASC_NODE": 81.2213, "ARG_OF_PERICENTER": 166.1464, "MEAN_ANOMALY": 306.7296, "EPHEMERIS_TYPE": 0, "CLASSIFICATION_TYPE": "U", "NORAD_CAT_ID": 43491, "ELEMENT_SET_NO": 999, "REV_AT_EPOCH": 2767, "BSTAR": 0, "MEAN_MOTION_DOT": -1.1e-06, "MEAN_MOTION_DDOT": 0}, "tle": {"line1": "1 43491U 18050A   25357.06359090 -.00000110  00000+0  00000+0 0  9990", "line2": "2 43491   2.5759  81.2213 0002368 166.1464 306.7296  1.00270908 27677"}}, "geometry": {"type": "Point", "coordinates": [96.7680207194995, 0.7146131889643845]}}, {"type": "Feature", "properties": {"norad_id": 43689, "name": "METOP-C", "group": "weather", "lat": -55.19498459573242, "lon": 68.10233612468141, "alt_km": 827.1857074903264, "timestamp": "2025-12-23T18:59:31.636997+00:00", "meta": {"OBJECT_NAME": "METOP-C", "OBJECT_ID": "2018-087A", "EPOCH": "2025-12-23T04:03:07.029504", "MEAN_MOTION": 14.21488268, "ECCENTRICITY": 7.341e-05, "INCLINATION": 98.6913, "RA_OF_ASC_NODE": 54.7779, "ARG_OF_PERICENTER": 20.2587, "MEAN_ANOMALY": 339.862, "EPHEMERIS_TYPE": 0, "CLASSIFICATION_TYPE": "U", "NORAD_CAT_ID": 43689, "ELEMENT_SET_NO": 999, "REV_AT_EPOCH": 36982, "BSTAR": 8.2308841e-05, "MEAN_MOTION_DOT": 1.36e-06, "MEAN_MOTION_DDOT": 0}, "tle": {"line1": "1 43689U 18087A   25357.16883136  .00000136  00000+0  82309-4 0  9997", "line2": "2 43689  98.6913  54.7779 0000734  20.2587 339.8620 14.21488268369828"}}, "geometry": {"type": "Point", "coordinates": [68.10233612468141, -55.19498459573242]}}, {"type": "Feature", "properties": {"norad_id": 43823, "name": "GEO-KOMPSAT-2A", "group": "weather", "lat": 0.03458113723787518, "lon": 145.71100774636628, "alt_km": 35785.821102013186, "timestamp": "2025-12-23T18:59:31.637007+00:00", "meta": {"OBJECT_NAME": "GEO-KOMPSAT-2A", "OBJECT_ID": "2018-100A", "EPOCH": "2025-12-22T22:20:09.234816", "MEAN_MOTION": 1.00269844, "ECCENTRICITY": 3.554e-05, "INCLINATION": 0.0514, "RA_OF_ASC_NODE": 125.2489, "ARG_OF_PERICENTER": 328.4521, "MEAN_ANOMALY": 101.3281, "EPHEMERIS_TYPE": 0, "CLASSIFICATION_TYPE": "U", "NORAD_CAT_ID": 43823, "ELEMENT_SET_NO": 999, "REV_AT_EPOCH": 2586, "BSTAR": 0, "MEAN_MOTION_DOT": -3.22e-06, "MEAN_MOTION_DDOT": 0}, "tle": {"line1": "1 43823U 18100A   25356.93066244 -.00000322  00000+0  00000+0 0  9991", "line2": "2 43823   0.0514 125.2489 0000355 328.4521 101.3281  1.00269844 25862"}}, "geometry": {"type": "Point", "coordinates": [145.71100774636628, 0.03458113723787518]}}, {"type": "Feature", "properties": {"norad_id": 44387, "name": "METEOR-M2 2", "group": "weather", "lat": 49.36692804855346, "lon": 168.17455521778288, "alt_km": 805.1045398543511, "timestamp": "2025-12-23T18:59:31.637018+00:00", "meta": {"OBJECT_NAME": "METEOR-M2 2", "OBJECT_ID": "2019-038A", "EPOCH": "2025-12-23T06:34:59.525184", "MEAN_MOTION": 14.24297161, "ECCENTRICITY": 0.00017094, "INCLINATION": 98.8979, "RA_OF_ASC_NODE": 337.1321, "ARG_OF_PERICENTER": 127.253, "MEAN_ANOMALY": 232.8804, "EPHEMERIS_TYPE": 0, "CLASSIFICATION_TYPE": "U", "NORAD_CAT_ID": 44387, "ELEMENT_SET_NO": 999, "REV_AT_EPOCH": 33625, "BSTAR": 0.00024591128, "MEAN_MOTION_DOT": 5.22e-06, "MEAN_MOTION_DDOT": 0}, "tle": {"line1": "1 44387U 19038A   25357.27430006  .00000522  00000+0  24591-3 0  9993", "line2": "2 44387  98.8979 337.1321 0001709 127.2530 232.8804 14.24297161336258"}}, "geometry": {"type": "Point", "coordinates": [168.17455521778288, 49.36692804855346]}}, {"type": "Feature", "properties": {"norad_id": 47719, "name": "ARKTIKA-M 1", "group": "weather", "lat": 63.043472174642574, "lon": 178.966897415013, "alt_km": 39041.32583974235, "timestamp": "2025-12-23T18:59:31.637030+00:00", "meta": {"OBJECT_NAME": "ARKTIKA-M 1", "OBJECT_ID": "2021-016A", "EPOCH": "2025-12-23T01:01:51.743136", "MEAN_MOTION": 2.00630806, "ECCENTRICITY": 0.72093828, "INCLINATION": 63.1759, "RA_OF_ASC_NODE": 82.5898, "ARG_OF_PERICENTER": 269.1646, "MEAN_ANOMALY": 15.5425, "EPHEMERIS_TYPE": 0, "CLASSIFICATION_TYPE": "U", "NORAD_CAT_ID": 47719, "ELEMENT_SET_NO": 999, "REV_AT_EPOCH": 3525, "BSTAR": 0, "MEAN_MOTION_DOT": -6.7e-07, "MEAN_MOTION_DDOT": 0}, "tle": {"line1": "1 47719U 21016A   25357.04295999 -.00000067  00000+0  00000+0 0  9999", "line2": "2 47719  63.1759  82.5898 7209382 269.1646  15.5425  2.00630806 35258"}}, "geometry": {"type": "Point", "coordinates": [178.966897415013, 63.043472174642574]}}, {"type": "Feature", "properties": {"norad_id": 49008, "name": "FENGYUN 3E", "group": "weather", "lat": -80.56891902519227, "lon": 66.13497770518259, "alt_km": 832.9524313647289, "timestamp": "2025-12-23T18:59:31.637040+00:00", "meta": {"OBJECT_NAME": "FENGYUN 3E", "OBJECT_ID": "2021-062A", "EPOCH": "2025-12-23T07:33:36.986688", "MEAN_MOTION": 14.19881487, "ECCENTRICITY": 8.271e-05, "INCLINATION": 98.7471, "RA_OF_ASC_NODE": 357.7105, "ARG_OF_PERICENTER": 197.265, "MEAN_ANOMALY": 162.8499, "EPHEMERIS_TYPE": 0, "CLASSIFICATION_TYPE": "U", "NORAD_CAT_ID": 49008, "ELEMENT_SET_NO": 999, "REV_AT_EPOCH": 23162, "BSTAR": 3.5104787e-05, "MEAN_MOTION_DOT": 3.1e-07, "MEAN_MOTION_DDOT": 0}, "tle": {"line1": "1 49008U 21062A   25357.31501142  .00000031  00000+0  35105-4 0  9992", "line2": "2 49008  98.7471 357.7105 0000827 197.2650 162.8499 14.19881487231628"}}, "geometry": {"type": "Point", "coordinates": [66.13497770518259, -80.56891902519227]}}, {"type": "Feature", "properties": {"norad_id": 51850, "name": "GOES 18", "group": "weather", "lat": -0.0036592933182257497, "lon": -119.55353199205315, "alt_km": 35786.16314177238, "timestamp": "2025-12-23T18:59:31.637051+00:00", "meta": {"OBJECT_NAME": "GOES 18", "OBJECT_ID": "2022-021A", "EPOCH": "2025-12-23T07:37:18.727104", "MEAN_MOTION": 1.00270845, "ECCENTRICITY": 3.47e-05, "INCLINATION": 0.0109, "RA_OF_ASC_NODE": 113.4809, "ARG_OF_PERICENTER": 211.8579, "MEAN_ANOMALY": 104.0988, "EPHEMERIS_TYPE": 0, "CLASSIFICATION_TYPE": "U", "NORAD_CAT_ID": 51850, "ELEMENT_SET_NO": 999, "REV_AT_EPOCH": 482, "BSTAR": 0, "MEAN_MOTION_DOT": 1.18e-06, "MEAN_MOTION_DDOT": 0}, "tle": {"line1": "1 51850U 22021A   25357.31757786  .00000118  00000+0  00000+0 0  9990", "line2": "2 51850   0.0109 113.4809 0000347 211.8579 104.0988  1.00270845  4825"}}, "geometry": {"type": "Point", "coordinates": [-119.55353199205315, -0.0036592933182257497]}}]}